{"type": "FeatureCollection", "features": [ {"type": "Feature", "properties": {"norad_id": 35446, "name": "COSMOS 2251 DEB", "group": "cosmos-2251-debris", "lat": -57.00573168524737, "lon": 135.74191419879986, "alt_km": 767.8925022077538, "timestamp": "2025-12-27T20:30:59.676066+00:00", "meta": {"OBJECT_NAME": "COSMOS 2251 DEB", "OBJECT_ID": "1993-036AKQ", "EPOCH": "2025-12-27T01:15:32.645952", "MEAN_MOTION": 14.54644563, "ECCENTRICITY": 0.00748148, "INCLINATION": 74.0474, "RA_OF_ASC_NODE": 291.119, "ARG_OF_PERICENTER": 45.2371, "MEAN_ANOMALY": 315.4845, "EPHEMERIS_TYPE": 0, "CLASSIFICATION_TYPE": "U", "NORAD_CAT_ID": 35446, "ELEMENT_SET_NO": 999, "REV_AT_EPOCH": 88216, "BSTAR": 0.00014918136, "MEAN_MOTION_DOT": 6.32e-06, "MEAN_MOTION_DDOT": 0}, "tle": {"line1": "1 35446U 93036AKQ 25361.05246118  .00000632  00000+0  14918-3 0  9993", "line2": "2 35446  74.0474 291.1190 0074814  45.2371 315.4845 14.54644563882166"}}, "geometry": {"type": "Point", "coordinates": [135.74191419879986, -57.00573168524737]}}, {"type": "Feature", "properties": {"norad_id": 35448, "name": "COSMOS 2251 DEB", "group": "cosmos-2251-debris", "lat": 72.53575429336394, "lon": 127.31099943507922, "alt_km": 712.2104268974854, "timestamp": "2025-12-27T20:30:59.676077+00:00", "meta": {"OBJECT_NAME": "COSMOS 2251 DEB", "OBJECT_ID": "1993-036AKS", "EPOCH": "2025-12-26T14:25:10.468704", "MEAN_MOTION": 14.54377943, "ECCENTRICITY": 0.0012168, "INCLINATION": 73.903, "RA_OF_ASC_NODE": 63.0866, "ARG_OF_PERICENTER": 247.5607, "MEAN_ANOMALY": 112.4267, "EPHEMERIS_TYPE": 0, "CLASSIFICATION_TYPE": "U", "NORAD_CAT_ID": 35448, "ELEMENT_SET_NO": 999, "REV_AT_EPOCH": 87536, "BSTAR": 0.0010063, "MEAN_MOTION_DOT": 4.254e-05, "MEAN_MOTION_DDOT": 0}, "tle": {"line1": "1 35448U 93036AKS 25360.60081561  .00004254  00000+0  10063-2 0  9994", "line2": "2 35448  73.9030  63.0866 0012168 247.5607 112.4267 14.54377943875365"}}, "geometry": {"type": "Point", "coordinates": [127.31099943507922, 72.53575429336394]}}, {"type": "Feature", "properties": {"norad_id": 35451, "name": "COSMOS 2251 DEB", "group": "cosmos-2251-debris", "lat": -58.54802751808659, "lon": -81.90111946670343, "alt_km": 452.0875726104159, "timestamp": "2025-12-27T20:30:59.676087+00:00", "meta": {"OBJECT_NAME": "COSMOS 2251 DEB", "OBJECT_ID": "1993-036AKV", "EPOCH": "2025-12-22T16:02:09.713472", "MEAN_MOTION": 15.36538479, "ECCENTRICITY": 0.00416089, "INCLINATION": 73.9322, "RA_OF_ASC_NODE": 81.2046, "ARG_OF_PERICENTER": 326.0524, "MEAN_ANOMALY": 33.8019, "EPHEMERIS_TYPE": 0, "CLASSIFICATION_TYPE": "U", "NORAD_CAT_ID": 35451, "ELEMENT_SET_NO": 999, "REV_AT_EPOCH": 67558, "BSTAR": 0.0014760448, "MEAN_MOTION_DOT": 0.00054537, "MEAN_MOTION_DDOT": 0}, "tle": {"line1": "1 35451U 93036AKV 25356.66816798  .00054537  00000+0  14760-2 0  9994", "line2": "2 35451  73.9322  81.2046 0041608 326.0524  33.8019 15.36538479675584"}}, "geometry": {"type": "Point", "coordinates": [-81.90111946670343, -58.54802751808659]}}, {"type": "Feature", "properties": {"norad_id": 35453, "name": "COSMOS 2251 DEB", "group": "cosmos-2251-debris", "lat": -29.692007522196565, "lon": -16.91634101076755, "alt_km": 813.3732919779213, "timestamp": "2025-12-27T20:30:59.676097+00:00", "meta": {"OBJECT_NAME": "COSMOS 2251 DEB", "OBJECT_ID": "1993-036AKX", "EPOCH": "2025-12-16T19:11:22.117056", "MEAN_MOTION": 14.38003213, "ECCENTRICITY": 0.00669431, "INCLINATION": 74.0096, "RA_OF_ASC_NODE": 12.8823, "ARG_OF_PERICENTER": 145.8531, "MEAN_ANOMALY": 214.6957, "EPHEMERIS_TYPE": 0, "CLASSIFICATION_TYPE": "U", "NORAD_CAT_ID": 35453, "ELEMENT_SET_NO": 999, "REV_AT_EPOCH": 86277, "BSTAR": 0.00051941791, "MEAN_MOTION_DOT": 1.586e-05, "MEAN_MOTION_DDOT": 0}, "tle": {"line1": "1 35453U 93036AKX 25350.79956154  .00001586  00000+0  51942-3 0  9995", "line2": "2 35453  74.0096  12.8823 0066943 145.8531 214.6957 14.38003213862776"}}, "geometry": {"type": "Point", "coordinates": [-16.91634101076755, -29.692007522196565]}}, {"type": "Feature", "properties": {"norad_id": 35455, "name": "COSMOS 2251 DEB", "group": "cosmos-2251-debris", "lat": 73.78336837141993, "lon": -13.592965869939889, "alt_km": 707.5108118548642, "timestamp": "2025-12-27T20:30:59.676108+00:00", "meta": {"OBJECT_NAME": "COSMOS 2251 DEB", "OBJECT_ID": "1993-036AKZ", "EPOCH": "2025-12-27T03:33:30.254976", "MEAN_MOTION": 14.49569648, "ECCENTRICITY": 0.01000448, "INCLINATION": 74.0278, "RA_OF_ASC_NODE": 267.7507, "ARG_OF_PERICENTER": 7.9595, "MEAN_ANOMALY": 352.3123, "EPHEMERIS_TYPE": 0, "CLASSIFICATION_TYPE": "U", "NORAD_CAT_ID": 35455, "ELEMENT_SET_NO": 999, "REV_AT_EPOCH": 86752, "BSTAR": 0.0016070253, "MEAN_MOTION_DOT": 6.552e-05, "MEAN_MOTION_DDOT": 0}, "tle": {"line1": "1 35455U 93036AKZ 25361.14826684  .00006552  00000+0  16070-2 0  9992", "line2": "2 35455  74.0278 267.7507 0100044   7.9595 352.3123 14.49569648867523"}}, "geometry": {"type": "Point", "coordinates": [-13.592965869939889, 73.78336837141993]}}, {"type": "Feature", "properties": {"norad_id": 35456, "name": "COSMOS 2251 DEB", "group": "cosmos-2251-debris", "lat": 71.62224299564643, "lon": -152.01111298100852, "alt_km": 699.8252377472163, "timestamp": "2025-12-27T20:30:59.676118+00:00", "meta": {"OBJECT_NAME": "COSMOS 2251 DEB", "OBJECT_ID": "1993-036ALA", "EPOCH": "2025-12-23T00:04:26.032512", "MEAN_MOTION": 14.69618117, "ECCENTRICITY": 0.00667181, "INCLINATION": 73.9512, "RA_OF_ASC_NODE": 97.4858, "ARG_OF_PERICENTER": 305.2899, "MEAN_ANOMALY": 54.2041, "EPHEMERIS_TYPE": 0, "CLASSIFICATION_TYPE": "U", "NORAD_CAT_ID": 35456, "ELEMENT_SET_NO": 999, "REV_AT_EPOCH": 66026, "BSTAR": 0.0018731177, "MEAN_MOTION_DOT": 0.00011509, "MEAN_MOTION_DDOT": 0}, "tle": {"line1": "1 35456U 93036ALA 25357.00307908  .00011509  00000+0  18731-2 0  9990", "line2": "2 35456  73.9512  97.4858 0066718 305.2899  54.2041 14.69618117660267"}}, "geometry": {"type": "Point", "coordinates": [-152.01111298100852, 71.62224299564643]}}, {"type": "Feature", "properties": {"norad_id": 35459, "name": "COSMOS 2251 DEB", "group": "cosmos-2251-debris", "lat": 3.389639111328734, "lon": -21.790630340020073, "alt_km": 765.9140311044957, "timestamp": "2025-12-27T20:30:59.676142+00:00", "meta": {"OBJECT_NAME": "COSMOS 2251 DEB", "OBJECT_ID": "1993-036ALD", "EPOCH": "2025-12-27T04:40:05.944800", "MEAN_MOTION": 14.37485137, "ECCENTRICITY": 0.0015928, "INCLINATION": 73.8699, "RA_OF_ASC_NODE": 160.4185, "ARG_OF_PERICENTER": 103.1791, "MEAN_ANOMALY": 257.114, "EPHEMERIS_TYPE": 0, "CLASSIFICATION_TYPE": "U", "NORAD_CAT_ID": 35459, "ELEMENT_SET_NO": 999, "REV_AT_EPOCH": 58569, "BSTAR": 0.00032353, "MEAN_MOTION_DOT": 9.43e-06, "MEAN_MOTION_DDOT": 0}, "tle": {"line1": "1 35459U 93036ALD 25361.19451325  .00000943  00000+0  32353-3 0  9998", "line2": "2 35459  73.8699 160.4185 0015928 103.1791 257.1140 14.37485137585698"}}, "geometry": {"type": "Point", "coordinates": [-21.790630340020073, 3.389639111328734]}}, {"type": "Feature", "properties": {"norad_id": 35462, "name": "COSMOS 2251 DEB", "group": "cosmos-2251-debris", "lat": 21.68204903769539, "lon": 54.69850010854355, "alt_km": 819.767329959469, "timestamp": "2025-12-27T20:30:59.676153+00:00", "meta": {"OBJECT_NAME": "COSMOS 2251 DEB", "OBJECT_ID": "1993-036ALG", "EPOCH": "2025-12-24T22:54:22.815936", "MEAN_MOTION": 14.29379641, "ECCENTRICITY": 0.0086649, "INCLINATION": 74.0358, "RA_OF_ASC_NODE": 246.4998, "ARG_OF_PERICENTER": 279.062, "MEAN_ANOMALY": 80.0732, "EPHEMERIS_TYPE": 0, "CLASSIFICATION_TYPE": "U", "NORAD_CAT_ID": 35462, "ELEMENT_SET_NO": 999, "REV_AT_EPOCH": 66555, "BSTAR": 0.0013247, "MEAN_MOTION_DOT": 3.491e-05, "MEAN_MOTION_DDOT": 0}, "tle": {"line1": "1 35462U 93036ALG 25358.95443074  .00003491  00000+0  13247-2 0  9995", "line2": "2 35462  74.0358 246.4998 0086649 279.0620  80.0732 14.29379641665553"}}, "geometry": {"type": "Point", "coordinates": [54.69850010854355, 21.68204903769539]}}, {"type": "Feature", "properties": {"norad_id": 35465, "name": "COSMOS 2251 DEB", "group": "cosmos-2251-debris", "lat": -45.71660830667874, "lon": 151.72450713686433, "alt_km": 705.9104973352232, "timestamp": "2025-12-27T20:30:59.676163+00:00", "meta": {"OBJECT_NAME": "COSMOS 2251 DEB", "OBJECT_ID": "1993-036ALK", "EPOCH": "2025-12-23T05:21:40.851936", "MEAN_MOTION": 14.44343886, "ECCENTRICITY": 0.00645011, "INCLINATION": 73.9972, "RA_OF_ASC_NODE": 177.4731, "ARG_OF_PERICENTER": 335.4735, "MEAN_ANOMALY": 24.3357, "EPHEMERIS_TYPE": 0, "CLASSIFICATION_TYPE": "U", "NORAD_CAT_ID": 35465, "ELEMENT_SET_NO": 999, "REV_AT_EPOCH": 87393, "BSTAR": 0.00030952177, "MEAN_MOTION_DOT": 1.064e-05, "MEAN_MOTION_DDOT": 0}, "tle": {"line1": "1 35465U 93036ALK 25357.22338949  .00001064  00000+0  30952-3 0  9998", "line2": "2 35465  73.9972 177.4731 0064501 335.4735  24.3357 14.44343886873937"}}, "geometry": {"type": "Point", "coordinates": [151.72450713686433, -45.71660830667874]}}, {"type": "Feature", "properties": {"norad_id": 35469, "name": "COSMOS 2251 DEB", "group": "cosmos-2251-debris", "lat": 73.49688740853293, "lon": 70.79133258565098, "alt_km": 692.3408255435997, "timestamp": "2025-12-27T20:30:59.676173+00:00", "meta": {"OBJECT_NAME": "COSMOS 2251 DEB", "OBJECT_ID": "1993-036ALP", "EPOCH": "2025-12-25T08:30:10.757088", "MEAN_MOTION": 14.49829741, "ECCENTRICITY": 0.0076333, "INCLINATION": 74.0167, "RA_OF_ASC_NODE": 0.1572, "ARG_OF_PERICENTER": 152.3641, "MEAN_ANOMALY": 208.161, "EPHEMERIS_TYPE": 0, "CLASSIFICATION_TYPE": "U", "NORAD_CAT_ID": 35469, "ELEMENT_SET_NO": 999, "REV_AT_EPOCH": 88294, "BSTAR": 9.3047e-05, "MEAN_MOTION_DOT": 3.43e-06, "MEAN_MOTION_DDOT": 0}, "tle": {"line1": "1 35469U 93036ALP 25359.35429117  .00000343  00000+0  93047-4 0  9990", "line2": "2 35469  74.0167   0.1572 0076333 152.3641 208.1610 14.49829741882941"}}, "geometry": {"type": "Point", "coordinates": [70.79133258565098, 73.49688740853293]}}]}